     2.100          NAVIGATION                              RINEX VERSION / TYPE
fic2rin                                 08/02/2014 00:14:23 PGM / RUN BY / DATE
                                                            END OF HEADER
23 14  8  1  5 59 44.0 -.410308130085D-04 -.295585778076D-11  .000000000000D+00
     .160000000000D+02  .221250000000D+02  .528164857329D-08  .122815782047D+01
     .137463212013D-05  .965093693230D-02  .451318919659D-05  .515375058174D+04
     .453584000000D+06  .186264514923D-08 -.726622944065D+00  .100582838058D-06
     .950993456260D+00  .287937500000D+03 -.274877461324D+01 -.861964475709D-08
    -.173578658819D-09  .100000000000D+01  .180300000000D+04  .000000000000D+00
     .240000000000D+01  .000000000000D+00 -.200234353542D-07  .160000000000D+02
     .446706000000D+06  .400000000000D+01
 2 14  8  1  5 59 44.0  .510017853230D-03  .216004991671D-11  .000000000000D+00
     .280000000000D+02 -.617187500000D+02  .501378027264D-08  .913792908034D+00
    -.332109630108D-05  .136574109783D-01  .865757465363D-05  .515365077972D+04
     .453584000000D+06 -.201165676117D-06 -.285556080706D+01  .856816768646D-07
     .940040445235D+00  .203468750000D+03 -.240072498068D+01 -.839820696189D-08
    -.275368613065D-09  .100000000000D+01  .180300000000D+04  .000000000000D+00
     .240000000000D+01  .000000000000D+00 -.200234353542D-07  .280000000000D+02
     .447036000000D+06  .400000000000D+01
10 14  8  1  5 59 44.0 -.136036425829D-03 -.159161572810D-11  .000000000000D+00
     .610000000000D+02  .442500000000D+02  .494913472276D-08 -.280465928200D+01
     .201724469662D-05  .136968733277D-01  .963173806667D-05  .515360920715D+04
     .453584000000D+06  .124797224998D-06 -.177048195870D+01 -.247731804848D-06
     .941594817638D+00  .182843750000D+03  .871342729482D+00 -.800783355841D-08
     .381801617856D-09  .100000000000D+01  .180300000000D+04  .000000000000D+00
     .240000000000D+01  .000000000000D+00 -.279396772385D-08  .610000000000D+02
     .450486000000D+06  .400000000000D+01
24 14  8  1  5 59 44.0 -.327713787556D-04 -.682121026330D-12  .000000000000D+00
     .300000000000D+02 -.273437500000D+02  .461376361035D-08  .484845178422D+00
    -.143051147461D-05  .210855482146D-02  .828877091408D-05  .515372312355D+04
     .453584000000D+06 -.130385160446D-07  .299974326266D+00 -.223517417908D-07
     .956588127518D+00  .213312500000D+03  .311094003160D+00 -.816962601200D-08
    -.433232331580D-09  .100000000000D+01  .180300000000D+04  .000000000000D+00
     .240000000000D+01  .000000000000D+00  .279396772385D-08  .300000000000D+02
     .451326000000D+06  .400000000000D+01
13 14  8  1  5 59 44.0 -.264290720224D-04 -.397903932026D-11  .000000000000D+00
     .000000000000D+00  .126250000000D+02  .458411951841D-08  .197581872025D+01
     .737607479095D-06  .530514190905D-02  .453926622868D-05  .515355381203D+04
     .453584000000D+06  .726431608200D-07 -.627793795754D+00 -.558793544769D-07
     .976845236085D+00  .295906250000D+03  .232416247396D+01 -.815641117584D-08
    -.202151277555D-09  .100000000000D+01  .180300000000D+04  .000000000000D+00
     .240000000000D+01  .000000000000D+00 -.111758708954D-07  .000000000000D+00
     .452166000000D+06  .400000000000D+01
 2 14  8  1  7 59 44.0  .510033220053D-03  .216004991671D-11  .000000000000D+00
     .290000000000D+02 -.714062500000D+02  .484341603343D-08  .196388266632D+01
    -.365637242794D-05  .136577079538D-01  .878982245922D-05  .515365358925D+04
     .460784000000D+06 -.296160578728D-06 -.285562163958D+01 -.137835741043D-06
     .940039034982D+00  .198593750000D+03 -.240061744596D+01 -.826105839196D-08
    -.192865176466D-09  .100000000000D+01  .180300000000D+04  .000000000000D+00
     .240000000000D+01  .000000000000D+00 -.200234353542D-07  .290000000000D+02
     .453606000000D+06  .400000000000D+01
10 14  8  1  7 59 44.0 -.136048067361D-03 -.159161572810D-11  .000000000000D+00
     .620000000000D+02  .493437500000D+02  .488413201513D-08 -.175445902220D+01
     .240281224251D-05  .136966997525D-01  .934489071369D-05  .515360897064D+04
     .460784000000D+06  .230967998505D-06 -.177054000143D+01 -.124797224998D-06
     .941597954134D+00  .182093750000D+03  .871365498339D+00 -.803783480808D-08
     .443589905872D-09  .100000000000D+01  .180300000000D+04  .000000000000D+00
     .240000000000D+01  .000000000000D+00 -.279396772385D-08  .620000000000D+02
     .453606000000D+06  .400000000000D+01
13 14  8  1  7 59 44.0 -.264574773610D-04 -.397903932026D-11  .000000000000D+00
     .100000000000D+01  .116250000000D+02  .464376486002D-08  .302610676977D+01
     .694766640663D-06  .530522386543D-02  .474601984024D-05  .515355350113D+04
     .460784000000D+06 -.186264514923D-08 -.627853260448D+00  .115483999252D-06
     .976844375889D+00  .297500000000D+03  .232413003961D+01 -.813248160764D-08
    -.503592405216D-10  .100000000000D+01  .180300000000D+04  .000000000000D+00
     .240000000000D+01  .000000000000D+00 -.111758708954D-07  .100000000000D+01
     .453606000000D+06  .400000000000D+01
24 14  8  1  7 59 44.0 -.327760353684D-04 -.682121026330D-12  .000000000000D+00
     .310000000000D+02 -.336562500000D+02  .471412493365D-08  .153561914056D+01
    -.164285302162D-05  .210765062366D-02  .795163214207D-05  .515372011757D+04
     .460784000000D+06  .204890966415D-07  .299915018104D+00  .651925802231D-07
     .956585195830D+00  .222781250000D+03  .310473061729D+00 -.818426947910D-08
    -.353228999120D-09  .100000000000D+01  .180300000000D+04  .000000000000D+00
     .240000000000D+01  .000000000000D+00  .279396772385D-08  .310000000000D+02
     .453606000000D+06  .400000000000D+01
 1 14  8  1  8  0  0.0  .188024714589D-04  .682121026330D-12  .000000000000D+00
     .510000000000D+02 -.529687500000D+02  .438625413366D-08  .130441515077D+01
    -.283308327198D-05  .334572838619D-02  .949762761593D-05  .515368077850D+04
     .460800000000D+06  .149011611938D-07 -.282458429793D+01  .521540641785D-07
     .961485548612D+00  .196000000000D+03  .355885320235D+00 -.800283335013D-08
    -.221080637467D-09  .100000000000D+01  .180300000000D+04  .000000000000D+00
     .240000000000D+01  .000000000000D+00  .558793544769D-08  .510000000000D+02
     .453606000000D+06  .400000000000D+01
 3 14  8  1  8  0  0.0  .398131087422D-03  .488853402203D-11  .000000000000D+00
     .730000000000D+02 -.431250000000D+01  .512699927438D-08  .199509252990D+01
    -.573694705963D-06  .173093741760D-01  .356137752533D-05  .515381551361D+04
     .460800000000D+06  .245869159698D-06  .225248201893D+01 -.318512320518D-06
     .939035505364D+00  .297843750000D+03  .140998596248D+01 -.841106464032D-08
     .117147736816D-09  .100000000000D+01  .180300000000D+04  .000000000000D+00
     .240000000000D+01  .000000000000D+00 -.465661287308D-08  .730000000000D+02
     .453606000000D+06  .400000000000D+01
 4 14  8  1  8  0  0.0  .723125413060D-05  .000000000000D+00  .000000000000D+00
     .420000000000D+02 -.574687500000D+02  .497199281774D-08 -.300735605428D+00
    -.287778675556D-05  .108551084995D-01  .897981226444D-05  .515197423553D+04
     .460800000000D+06  .558793544769D-08 -.283975773691D+01  .152736902237D-06
     .939047160432D+00  .196187500000D+03  .105712423059D+01 -.846928135099D-08
    -.151077721565D-09  .100000000000D+01  .180300000000D+04  .000000000000D+00
     .240000000000D+01  .000000000000D+00 -.651925802231D-08  .420000000000D+02
     .453606000000D+06  .400000000000D+01
 5 14  8  1  8  0  0.0 -.353236217052D-03  .329691829393D-11  .000000000000D+00
     .950000000000D+02  .431250000000D+02  .481770067657D-08 -.192507731159D+01
     .194087624550D-05  .368723564316D-02  .984035432339D-05  .515365102768D+04
     .460800000000D+06  .167638063431D-07 -.178742676472D+01 -.633299350739D-07
     .946808524547D+00  .181750000000D+03  .303255325287D+00 -.810640909305D-08
     .374658463172D-09  .100000000000D+01  .180300000000D+04  .000000000000D+00
     .240000000000D+01  .000000000000D+00 -.102445483208D-07  .950000000000D+02
     .453606000000D+06  .400000000000D+01
 6 14  8  1  8  0  0.0 -.257650390267D-05 -.170530256582D-11  .000000000000D+00
     .500000000000D+02 -.622500000000D+02  .437089635109D-08 -.208426378417D+01
    -.306591391563D-05  .410189852118D-03  .920146703720D-05  .515357547569D+04
     .460800000000D+06  .409781932831D-07 -.283314992759D+01 -.372529029846D-07
     .961415929804D+00  .199500000000D+03  .218239066597D+01 -.799711882638D-08
    -.157506560780D-09  .100000000000D+01  .180300000000D+04  .000000000000D+00
     .240000000000D+01  .000000000000D+00  .465661287308D-08  .500000000000D+02
     .453606000000D+06  .400000000000D+01
 7 14  8  1  8  0  0.0  .375158153474D-03  .432009983342D-11  .000000000000D+00
     .430000000000D+02 -.283750000000D+02  .431910847963D-08  .719311124436D+00
    -.135973095894D-05  .773725542240D-02  .843405723572D-05  .515362040520D+04
     .460800000000D+06  .521540641785D-07  .335659365971D+00  .707805156708D-07
     .973260229521D+00  .219812500000D+03 -.281666713157D+01 -.805962142987D-08
    -.502163774280D-09  .100000000000D+01  .180300000000D+04  .000000000000D+00
     .240000000000D+01  .000000000000D+00 -.107102096081D-07  .430000000000D+02
     .453606000000D+06  .400000000000D+01
 8 14  8  1  8  0  0.0  .150175765157D-04  .227373675443D-12  .000000000000D+00
     .510000000000D+02 -.254375000000D+02  .376837125350D-08  .359965872743D+00
    -.130012631416D-05  .140632247785D-01  .897422432899D-05  .515334730721D+04
     .460800000000D+06  .126659870148D-06  .436502914441D+00  .156462192535D-06
     .996603991368D+00  .221593750000D+03 -.275922901644D+01 -.784746973576D-08
    -.461804950316D-09  .100000000000D+01  .180300000000D+04  .000000000000D+00
     .240000000000D+01  .000000000000D+00 -.419095158577D-08  .510000000000D+02
     .453606000000D+06  .400000000000D+01
